[Satellite]
VERSION=1.1
NAME=ALSAT 1N
NICKNAME=ALSAT 1N
TLE1=1 41789U 16059G   18021.16309598  .00000066  00000-0  21630-4 0  9991
TLE2=2 41789  98.1396  85.8735 0028109 187.0518 173.0300 14.64120495 70505
